CCSDS_OMM_VERS = 2.0
CREATION_DATE  = 
ORIGINATOR     = 

OBJECT_NAME    = ENVISAT
OBJECT_ID      = 2002-009A
CENTER_NAME    = EARTH
REF_FRAME      = TEME
TIME_SYSTEM    = UTC
MEAN_ELEMENT_THEORY = SGP/SGP4

EPOCH          = 2025-11-30T20:48:20.161728
MEAN_MOTION    = 14.38992000
ECCENTRICITY   = .0001191
INCLINATION    = 98.3582
RA_OF_ASC_NODE = 285.9096
ARG_OF_PERICENTER = 81.9352
MEAN_ANOMALY   = 290.7292

EPHEMERIS_TYPE = 0
CLASSIFICATION_TYPE = U
NORAD_CAT_ID   = 27386
ELEMENT_SET_NO = 999
REV_AT_EPOCH   = 24496
BSTAR          = .60807E-4
MEAN_MOTION_DOT = .145E-5
MEAN_MOTION_DDOT = 0

CCSDS_OMM_VERS = 2.0
CREATION_DATE  = 
ORIGINATOR     = 

OBJECT_NAME    = IDEFIX & ARIANE 42P R/B
OBJECT_ID      = 2002-021B
CENTER_NAME    = EARTH
REF_FRAME      = TEME
TIME_SYSTEM    = UTC
MEAN_ELEMENT_THEORY = SGP/SGP4

EPOCH          = 2025-11-30T18:23:10.866336
MEAN_MOTION    = 14.30935802
ECCENTRICITY   = .0012764
INCLINATION    = 98.5769
RA_OF_ASC_NODE = 269.6134
ARG_OF_PERICENTER = 115.9502
MEAN_ANOMALY   = 244.2998

EPHEMERIS_TYPE = 0
CLASSIFICATION_TYPE = U
NORAD_CAT_ID   = 27422
ELEMENT_SET_NO = 999
REV_AT_EPOCH   = 22987
BSTAR          = .14074E-3
MEAN_MOTION_DOT = .326E-5
MEAN_MOTION_DDOT = 0

CCSDS_OMM_VERS = 2.0
CREATION_DATE  = 
ORIGINATOR     = 

OBJECT_NAME    = AQUA
OBJECT_ID      = 2002-022A
CENTER_NAME    = EARTH
REF_FRAME      = TEME
TIME_SYSTEM    = UTC
MEAN_ELEMENT_THEORY = SGP/SGP4

EPOCH          = 2025-11-30T20:12:05.298336
MEAN_MOTION    = 14.61762106
ECCENTRICITY   = .0000675
INCLINATION    = 98.4020
RA_OF_ASC_NODE = 295.5288
ARG_OF_PERICENTER = 103.6095
MEAN_ANOMALY   = 286.5906

EPHEMERIS_TYPE = 0
CLASSIFICATION_TYPE = U
NORAD_CAT_ID   = 27424
ELEMENT_SET_NO = 999
REV_AT_EPOCH   = 25429
BSTAR          = .24437E-3
MEAN_MOTION_DOT = .117E-4
MEAN_MOTION_DDOT = 0

CCSDS_OMM_VERS = 2.0
CREATION_DATE  = 
ORIGINATOR     = 

OBJECT_NAME    = CZ-4B R/B
OBJECT_ID      = 2002-024C
CENTER_NAME    = EARTH
REF_FRAME      = TEME
TIME_SYSTEM    = UTC
MEAN_ELEMENT_THEORY = SGP/SGP4

EPOCH          = 2025-11-30T18:31:54.242112
MEAN_MOTION    = 14.14523749
ECCENTRICITY   = .0049289
INCLINATION    = 98.9018
RA_OF_ASC_NODE = 23.5846
ARG_OF_PERICENTER = 304.5622
MEAN_ANOMALY   = 167.3357

EPHEMERIS_TYPE = 0
CLASSIFICATION_TYPE = U
NORAD_CAT_ID   = 27432
ELEMENT_SET_NO = 999
REV_AT_EPOCH   = 21525
BSTAR          = .5395E-4
MEAN_MOTION_DOT = .6E-6
MEAN_MOTION_DDOT = 0

CCSDS_OMM_VERS = 2.0
CREATION_DATE  = 
ORIGINATOR     = 

OBJECT_NAME    = MIDORI II (ADEOS-II)
OBJECT_ID      = 2002-056A
CENTER_NAME    = EARTH
REF_FRAME      = TEME
TIME_SYSTEM    = UTC
MEAN_ELEMENT_THEORY = SGP/SGP4

EPOCH          = 2025-11-30T17:51:10.950336
MEAN_MOTION    = 14.29192419
ECCENTRICITY   = .0000463
INCLINATION    = 98.7618
RA_OF_ASC_NODE = 287.6383
ARG_OF_PERICENTER = 11.8228
MEAN_ANOMALY   = 348.2964

EPHEMERIS_TYPE = 0
CLASSIFICATION_TYPE = U
NORAD_CAT_ID   = 27597
ELEMENT_SET_NO = 999
REV_AT_EPOCH   = 19616
BSTAR          = .13808E-3
MEAN_MOTION_DOT = .305E-5
MEAN_MOTION_DDOT = 0

CCSDS_OMM_VERS = 2.0
CREATION_DATE  = 
ORIGINATOR     = 

OBJECT_NAME    = H-2A R/B
OBJECT_ID      = 2002-056E
CENTER_NAME    = EARTH
REF_FRAME      = TEME
TIME_SYSTEM    = UTC
MEAN_ELEMENT_THEORY = SGP/SGP4

EPOCH          = 2025-11-30T19:36:30.985920
MEAN_MOTION    = 14.33660803
ECCENTRICITY   = .0071484
INCLINATION    = 98.3050
RA_OF_ASC_NODE = 294.0499
ARG_OF_PERICENTER = 96.0952
MEAN_ANOMALY   = 329.7001

EPHEMERIS_TYPE = 0
CLASSIFICATION_TYPE = U
NORAD_CAT_ID   = 27601
ELEMENT_SET_NO = 999
REV_AT_EPOCH   = 19994
BSTAR          = .13053E-3
MEAN_MOTION_DOT = .332E-5
MEAN_MOTION_DDOT = 0

CCSDS_OMM_VERS = 2.0
CREATION_DATE  = 
ORIGINATOR     = 

OBJECT_NAME    = CZ-4B R/B
OBJECT_ID      = 2003-049C
CENTER_NAME    = EARTH
REF_FRAME      = TEME
TIME_SYSTEM    = UTC
MEAN_ELEMENT_THEORY = SGP/SGP4

EPOCH          = 2025-11-30T16:44:48.813216
MEAN_MOTION    = 14.54891566
ECCENTRICITY   = .0048348
INCLINATION    = 98.6780
RA_OF_ASC_NODE = 320.8076
ARG_OF_PERICENTER = 172.4562
MEAN_ANOMALY   = 187.7372

EPHEMERIS_TYPE = 0
CLASSIFICATION_TYPE = U
NORAD_CAT_ID   = 28059
ELEMENT_SET_NO = 999
REV_AT_EPOCH   = 17220
BSTAR          = .10916E-3
MEAN_MOTION_DOT = .425E-5
MEAN_MOTION_DDOT = 0

CCSDS_OMM_VERS = 2.0
CREATION_DATE  = 
ORIGINATOR     = 

OBJECT_NAME    = CZ-2C R/B
OBJECT_ID      = 2004-012C
CENTER_NAME    = EARTH
REF_FRAME      = TEME
TIME_SYSTEM    = UTC
MEAN_ELEMENT_THEORY = SGP/SGP4

EPOCH          = 2025-11-30T20:00:58.318848
MEAN_MOTION    = 15.54337820
ECCENTRICITY   = .0017274
INCLINATION    = 97.7451
RA_OF_ASC_NODE = 26.4817
ARG_OF_PERICENTER = 316.7414
MEAN_ANOMALY   = 43.2481

EPHEMERIS_TYPE = 0
CLASSIFICATION_TYPE = U
NORAD_CAT_ID   = 28222
ELEMENT_SET_NO = 999
REV_AT_EPOCH   = 18887
BSTAR          = .58455E-3
MEAN_MOTION_DOT = .38521E-3
MEAN_MOTION_DDOT = 0

CCSDS_OMM_VERS = 2.0
CREATION_DATE  = 
ORIGINATOR     = 

OBJECT_NAME    = SL-16 R/B
OBJECT_ID      = 2004-021B
CENTER_NAME    = EARTH
REF_FRAME      = TEME
TIME_SYSTEM    = UTC
MEAN_ELEMENT_THEORY = SGP/SGP4

EPOCH          = 2025-11-30T17:48:00.612000
MEAN_MOTION    = 14.14582454
ECCENTRICITY   = .0005893
INCLINATION    = 71.0021
RA_OF_ASC_NODE = 80.1421
ARG_OF_PERICENTER = 215.1116
MEAN_ANOMALY   = 144.9619

EPHEMERIS_TYPE = 0
CLASSIFICATION_TYPE = U
NORAD_CAT_ID   = 28353
ELEMENT_SET_NO = 999
REV_AT_EPOCH   = 10884
BSTAR          = -.68877E-5
MEAN_MOTION_DOT = -.61E-6
MEAN_MOTION_DDOT = 0

CCSDS_OMM_VERS = 2.0
CREATION_DATE  = 
ORIGINATOR     = 

OBJECT_NAME    = CZ-4B R/B
OBJECT_ID      = 2004-035C
CENTER_NAME    = EARTH
REF_FRAME      = TEME
TIME_SYSTEM    = UTC
MEAN_ELEMENT_THEORY = SGP/SGP4

EPOCH          = 2025-11-30T19:59:50.235648
MEAN_MOTION    = 15.27080936
ECCENTRICITY   = .0032401
INCLINATION    = 97.3631
RA_OF_ASC_NODE = 5.3383
ARG_OF_PERICENTER = 321.6096
MEAN_ANOMALY   = 38.2837

EPHEMERIS_TYPE = 0
CLASSIFICATION_TYPE = U
NORAD_CAT_ID   = 28415
ELEMENT_SET_NO = 999
REV_AT_EPOCH   = 16481
BSTAR          = .34587E-3
MEAN_MOTION_DOT = .9256E-4
MEAN_MOTION_DDOT = 0

CCSDS_OMM_VERS = 2.0
CREATION_DATE  = 
ORIGINATOR     = 

OBJECT_NAME    = CZ-2C R/B
OBJECT_ID      = 2004-046B
CENTER_NAME    = EARTH
REF_FRAME      = TEME
TIME_SYSTEM    = UTC
MEAN_ELEMENT_THEORY = SGP/SGP4

EPOCH          = 2025-11-30T18:11:35.501856
MEAN_MOTION    = 14.26932182
ECCENTRICITY   = .0140756
INCLINATION    = 98.1979
RA_OF_ASC_NODE = 250.8813
ARG_OF_PERICENTER = 87.4536
MEAN_ANOMALY   = 274.2750

EPHEMERIS_TYPE = 0
CLASSIFICATION_TYPE = U
NORAD_CAT_ID   = 28480
ELEMENT_SET_NO = 999
REV_AT_EPOCH   = 9439
BSTAR          = .90931E-4
MEAN_MOTION_DOT = .205E-5
MEAN_MOTION_DDOT = 0

CCSDS_OMM_VERS = 2.0
CREATION_DATE  = 
ORIGINATOR     = 

OBJECT_NAME    = ARIANE 5 R/B
OBJECT_ID      = 2004-049H
CENTER_NAME    = EARTH
REF_FRAME      = TEME
TIME_SYSTEM    = UTC
MEAN_ELEMENT_THEORY = SGP/SGP4

EPOCH          = 2025-11-30T17:25:35.736384
MEAN_MOTION    = 14.84967708
ECCENTRICITY   = .0083697
INCLINATION    = 98.2518
RA_OF_ASC_NODE = 134.5771
ARG_OF_PERICENTER = 312.4108
MEAN_ANOMALY   = 47.0044

EPHEMERIS_TYPE = 0
CLASSIFICATION_TYPE = U
NORAD_CAT_ID   = 28499
ELEMENT_SET_NO = 999
REV_AT_EPOCH   = 13110
BSTAR          = .11563E-3
MEAN_MOTION_DOT = .983E-5
MEAN_MOTION_DDOT = 0

