ENVISAT                 
1 27386U 02009A   25334.86690002  .00000145  00000+0  60807-4 0  9999
2 27386  98.3582 285.9096 0001191  81.9352 290.7292 14.38992000244964
IDEFIX & ARIANE 42P R/B 
1 27422U 02021B   25334.76609799  .00000326  00000+0  14074-3 0  9991
2 27422  98.5769 269.6134 0012764 115.9502 244.2998 14.30935802229878
AQUA                    
1 27424U 02022A   25334.84172799  .00001170  00000+0  24437-3 0  9990
2 27424  98.4020 295.5288 0000675 103.6095 286.5906 14.61762106254297
CZ-4B R/B               
1 27432U 02024C   25334.77215558  .00000060  00000+0  53950-4 0  9994
2 27432  98.9018  23.5846 0049289 304.5622 167.3357 14.14523749215254
MIDORI II (ADEOS-II)    
1 27597U 02056A   25334.74387674  .00000305  00000+0  13808-3 0  9996
2 27597  98.7618 287.6383 0000463  11.8228 348.2964 14.29192419196164
H-2A R/B                
1 27601U 02056E   25334.81702530  .00000332  00000+0  13053-3 0  9994
2 27601  98.3050 294.0499 0071484  96.0952 329.7001 14.33660803199943
CZ-4B R/B               
1 28059U 03049C   25334.69778719  .00000425  00000+0  10916-3 0  9991
2 28059  98.6780 320.8076 0048348 172.4562 187.7372 14.54891566172200
CZ-2C R/B               
1 28222U 04012C   25334.83400832  .00038521  00000+0  58455-3 0  9996
2 28222  97.7451  26.4817 0017274 316.7414  43.2481 15.54337820188878
SL-16 R/B               
1 28353U 04021B   25334.74167375 -.00000061  00000+0 -68877-5 0  9994
2 28353  71.0021  80.1421 0005893 215.1116 144.9619 14.14582454108845
CZ-4B R/B               
1 28415U 04035C   25334.83322032  .00009256  00000+0  34587-3 0  9993
2 28415  97.3631   5.3383 0032401 321.6096  38.2837 15.27080936164812
CZ-2C R/B               
1 28480U 04046B   25334.75804979  .00000205  00000+0  90931-4 0  9994
2 28480  98.1979 250.8813 0140756  87.4536 274.2750 14.26932182 94390
ARIANE 5 R/B            
1 28499U 04049H   25334.72610806  .00000983  00000+0  11563-3 0  9994
2 28499  98.2518 134.5771 0083697 312.4108  47.0044 14.84967708131106
